ONEWEB-0492             
1 54114U 22138B   24186.78526261  .00000024  00000+0  28633-4 0  9990
2 54114  87.9150  86.7325 0002072  68.4267 291.7086 13.19727319 82873
ONEWEB-0495             
1 54115U 22138C   24186.91478494  .00000092  00000+0  19710-3 0  9990
2 54115  87.9150  86.7182 0002697  67.0415 293.1003 13.19723510 82872
ONEWEB-0497             
1 54116U 22138D   24186.77578738  .00000050  00000+0  92369-4 0  9993
2 54116  87.9145  86.7332 0002002  73.5888 286.5464 13.19724135 82848
ONEWEB-0499             
1 54117U 22138E   24186.75841929  .00000071  00000+0  14469-3 0  9994
2 54117  87.9150  86.7387 0002379  84.7855 275.3549 13.19726837 82852
ONEWEB-0500             
1 54118U 22138F   24186.76156648 -.00000220  00000+0 -58241-3 0  9997
2 54118  87.9147  86.7336 0001902  74.1923 285.9419 13.19724869 82860
ONEWEB-0501             
1 54119U 22138G   24186.79157690  .00000034  00000+0  53531-4 0  9998
2 54119  87.9146  86.7258 0002438  70.6539 289.4857 13.19722272 82841
ONEWEB-0502             
1 54120U 22138H   24186.77736722  .00000025  00000+0  30269-4 0  9990
2 54120  87.9143  86.7176 0002289  76.0318 284.1069 13.19724174 82860
ONEWEB-0503             
1 54121U 22138J   24186.76631109  .00000055  00000+0  10427-3 0  9999
2 54121  87.9143  86.7264 0002119  89.5949 270.5427 13.19724082 82854
